CAS-2T & KS-1Q          
1 41847U 16066G   23026.78264592  .00001998  00000+0  30943-3 0  9997
2 41847  98.5231  95.9488 0360921 261.4149  94.5996 14.39079088326467
NAYIF-1 (EO-88)         
1 42017U 17008BX  23026.71520169  .00057964  00000+0  11725-2 0  9992
2 42017  97.2386  95.6170 0003563 150.6647 209.4803 15.46254766331419
ZHUHAI-1 02 (CAS-4B)    
1 42759U 17034B   23027.26546521  .00009292  00000+0  51056-3 0  9998
2 42759  43.0159 177.3022 0011855 270.1621 156.1973 15.14224295310250
ZHUHAI-1 01 (CAS-4A)    
1 42761U 17034D   23027.48225558  .00010941  00000+0  59621-3 0  9998
2 42761  43.0158 174.7166 0011926 276.3991 131.5009 15.14378132310290
MAX VALIER SAT          
1 42778U 17036P   23027.33595302  .00014923  00000+0  48204-3 0  9998
2 42778  97.1782  66.0102 0007973 243.9986 116.0436 15.32169058311114
RADFXSAT (FOX-1B)       
1 43017U 17073E   23027.15066663  .00006817  00000+0  49575-3 0  9994
2 43017  97.6500 277.1266 0241510 173.7049 186.7298 14.83602103280255
FOX-1D (AO-92)          
1 43137U 18004AC  23026.17474962  .00030447  00000+0  87672-3 0  9994
2 43137  97.3455 104.8336 0006078 296.3006  63.7613 15.35688183280447
DIWATA-2B               
1 43678U 18084H   23027.05438899  .00002181  00000+0  21703-3 0  9996
2 43678  97.9974 168.4490 0008487 269.4185  90.6024 14.92715245231208
ES'HAIL 2               
1 43700U 18090A   23027.33881000  .00000142  00000+0  00000+0 0  9994
2 43700   0.0141  85.0807 0002257 258.3708 290.6227  1.00270703 15519
FOX-1CLIFF (AO-95)      
1 43770U 18099N   23027.10638480  .00005979  00000+0  51146-3 0  9991
2 43770  97.5923  92.4832 0012917 242.6471 117.3437 14.97906974226475
ITASAT 1                
1 43786U 18099AE  23026.42160978  .00004400  00000+0  37823-3 0  9998
2 43786  97.5966  92.8384 0013224 238.9955 120.9969 14.97854046226418
JY1SAT (JO-97)          
1 43803U 18099AX  23027.14702898  .00006080  00000+0  50943-3 0  9995
2 43803  97.5941  93.4044 0012577 233.8970 126.1089 14.98711545226555
UWE-4                   
1 43880U 18111E   23026.71127157  .00007029  00000+0  56984-3 0  9991
2 43880  97.6573 294.1594 0011605 297.5411  62.4633 14.99942284221144
NEXUS (FO-99)           
1 43937U 19003F   23027.07819122  .00033516  00000+0  87471-3 0  9990
2 43937  97.1079  57.3829 0018943  73.0387 287.2934 15.38554918224257
PSAT2 (NO-104)          
1 44354U 19036R   23027.11556422  .00462084  74600-4  87451-3 0  9992
2 44354  28.5158  26.6995 0074557  41.0923 319.5276 15.94334194199572
JAISAT-1                
1 44419U 19038F   23027.16341323  .00022185  00000+0  95522-3 0  9993
2 44419  97.6631   5.1177 0019699  79.6666 280.6789 15.22441291197021
DUCHIFAT-3              
1 44854U 19089C   23026.90200944  .00010147  00000+0  73824-3 0  9992
2 44854  36.9629 213.8818 0007932 253.9253 216.0626 15.03295577171548
CAS-6 (TIANQIN 1)       
1 44881U 19093C   23027.21654789  .00001764  00000+0  22811-3 0  9997
2 44881  97.8749 108.0378 0014796 172.5405 187.6015 14.82086508167913
RS-44 & BREEZE-KM R/B   
1 44909U 19096E   23026.87015308  .00000006  00000+0 -27121-4 0  9999
2 44909  82.5192  81.8518 0217988 157.1302 203.9690 12.79717982144135
ORBITAL FACTORY 2 (OF-2)
1 45113U 19071C   23026.03596915  .00165399  00000+0  13845-2 0  9998
2 45113  51.6309  31.0338 0003711 322.9507  37.1233 15.68929418167970
HUSKYSAT-1 (HO-107)     
1 45119U 19071J   23027.37230946  .00094531  00000+0  98614-3 0  9998
2 45119  51.6330  27.9294 0003919 305.7741  54.2889 15.63730749168121
BY70-2                  
1 45857U 20042B   23027.00212837  .00022563  00000+0  27079-2 0  9998
2 45857  97.9385 107.0393 0009881 108.2589 251.9297 14.83981224138553
SALSAT                  
1 46495U 20068K   23026.41705241  .00005144  00000+0  35736-3 0  9991
2 46495  97.7546 333.2508 0014550 238.1892 121.7918 15.05908001127727
BY70-3                  
1 46839U 20079N   23027.22805515  .00108576  00000+0  12982-2 0  9990
2 46839  97.1705 103.1536 0004306 235.0717 208.8354 15.60627972124875
RADFXSAT-2 (AO-109)     
1 47311U 21002C   23027.15335902  .00021012  00000+0  69615-3 0  9998
2 47311  60.6821 237.4161 0037239 104.9322 255.5896 15.30676179112649
UVSQ-SAT                
1 47438U 21006AB  23026.74083973  .00014910  00000+0  70800-3 0  9991
2 47438  97.4075  86.2280 0010082 213.1657 146.8947 15.19291533111137
DIY-1 (ARDUIQUBE)       
1 47963U 21022AH  23027.17351269  .00049756  00000+0  19588-2 0  9997
2 47963  97.5143 292.0995 0016740  80.7487 279.5643 15.25324088100889
XW-3 (CAS-9)            
1 50466U 21131B   23027.20686612  .00000570  00000+0  20052-3 0  9997
2 50466  98.5631 109.1694 0004596 189.4616 170.6485 14.38646520 57084
TEVEL-3                 
1 50988U 22002E   23027.16867333  .00020471  00000+0  98608-3 0  9994
2 50988  97.4549  95.6081 0009361  16.1074  36.6428 15.18733341 57318
TEVEL-8                 
1 50989U 22002F   23027.45809781  .00019839  00000+0  95721-3 0  9999
2 50989  97.4562  95.9362 0009223  14.5854 107.9370 15.18682721 57351
TEVEL-5                 
1 50998U 22002Q   23026.99418021  .00021057  00000+0  99677-3 0  9999
2 50998  97.4541  95.6791 0010472  10.2422 113.3072 15.19322566 57307
TEVEL-6                 
1 50999U 22002R   23027.24693425  .00020798  00000+0  98417-3 0  9994
2 50999  97.4536  95.9242 0010544   8.9393  62.4630 15.19337735 57349
TEVEL-1                 
1 51013U 22002AF  23027.04902500  .00020509  00000+0  98894-3 0  9996
2 51013  97.4542  95.4504 0009054  15.0187  69.6885 15.18698297 57291
TEVEL-7                 
1 51062U 22002CG  23026.99947053  .00020362  00000+0  98272-3 0  9992
2 51062  97.4558  95.4619 0008907  14.1885 111.5317 15.18671156 57281
TEVEL-4                 
1 51063U 22002CH  23026.99325951  .00020317  00000+0  98115-3 0  9996
2 51063  97.4560  95.4479 0009414  13.5994  64.7456 15.18646338 57284
TEVEL-2                 
1 51069U 22002CP  23027.23990553  .00020375  00000+0  98151-3 0  9990
2 51069  97.4547  95.6550 0009206  13.4425  58.3181 15.18733613 57326
YUZGU 9 (RS3S)          
1 53308U 98067TT  23027.31449368  .02807257  11801-4  15243-2 0  9994
2 53308  51.6180 285.8848 0007591 210.1620 254.4300 16.18916240 29758
YUZGU 7 (RS1S)          
1 53309U 98067TU  23026.78154543  .07817383  12266-4  25237-2 0  9999
2 53309  51.5369 287.2498 0215129 186.3126 284.9191 16.41937082 29633
YUZGU 11 (RS5S)         
1 53310U 98067TV  23027.21691275  .04175119  11919-4  15446-2 0  9994
2 53310  51.6201 286.1956 0007895 220.3951 139.6483 16.23707608 29721
TSIOLKOVSKY-RYAZAN 1 (*)
1 53312U 98067TX  23027.23010772  .07984851  12172-4  10935-2 0  9999
2 53312  51.6130 285.5123 0006786 228.9660 131.0778 16.34340713 29693
TSIOLKOVSKY-RYAZAN 2 (*)
1 53313U 98067TY  23026.97308729  .06837664  12107-4  11989-2 0  9998
2 53313  51.6138 286.8016 0007101 224.7047 135.3404 16.31921957 29709
YUZGU 10 (RS4S)         
1 53321U 98067TZ  23027.09884675  .04609800  11971-4  14572-2 0  9996
2 53321  51.6217 286.5921 0006067 223.9126 286.8438 16.25595846 29714
RS29S (SXC3-2110 CYCLO*)
1 53373U 22096D   23027.55014067  .00027597  00000+0  96307-3 0  9999
2 53373  97.4272 293.1172 0001623  72.8658  49.4662 15.29571760 26122
RS32S (SXC3-212 MONITO*)
1 53374U 22096E   23027.54360247  .00026154  00000+0  91675-3 0  9994
2 53374  97.4263 293.1160 0001239  80.0096  42.9982 15.29438452 26123
RS34S (SXC3-218 KUZBAS*)
1 53375U 22096F   23027.05068596  .00023784  00000+0  85158-3 0  9998
2 53375  97.4277 292.5622 0001400  56.4358  68.2422 15.28762662 26046
RS23S (SXC3-21 UTMN)    
1 53376U 22096G   23027.23879433  .00024324  00000+0  86622-3 0  9997
2 53376  97.4274 292.7668 0001319  67.0314  52.3808 15.28935516 26070
RS28S (SXC3-214 MIET-A*)
1 53377U 22096H   23027.43691043  .00022854  00000+0  81823-3 0  9993
2 53377  97.4278 292.9604 0001222  71.1138  39.3867 15.28772366 26106
RS26S (KAI-1)           
1 53378U 22096J   23027.52051102  .00019325  00000+0  70181-3 0  9994
2 53378  97.4284 293.0058 0001120  72.9202  52.6349 15.28340458 26114
RS19S (SXC3-219 ISOI)   
1 53381U 22096M   23027.58029116  .00022578  00000+0  79493-3 0  9993
2 53381  97.4272 293.2254 0003720 168.3551 310.5052 15.29317861 26132
RS21S (CUBESX-HSE-2)    
1 53383U 22096P   23027.44345450  .00023420  00000+0  82196-3 0  9993
2 53383  97.4275 293.1052 0003959 167.9073 310.0136 15.29413831 26110
RS30S (SXC3-217 SIREN)  
1 53384U 22096Q   23027.13203440  .00019838  00000+0  70513-3 0  9990
2 53384  97.4278 292.7656 0003402 171.1618 328.1046 15.29035525 26068
RS20S (GEOSCAN-EDELVEIS)
1 53385U 22096R   23027.44391315  .00029574  00000+0  99770-3 0  9998
2 53385  97.4261 293.2500 0004294 166.6497 311.2431 15.30650873 26151
RS33S (SXC3-215 VIZARD) 
1 53386U 22096S   23027.43859855  .00033279  00000+0  10817-2 0  9997
2 53386  97.4278 293.4043 0004728 169.6923 300.8368 15.31825959 26156
CAS-5A (FO-118)         
1 54684U 22167C   23027.07306813  .00015215  00000+0  94242-3 0  9994
2 54684  97.5399 166.2389 0015386  99.0576  20.7277 15.09771824  7359
CAS-10                  
1 54816U 21035C   23026.82419851  .00192106  00000+0  14115-2 0  9998
2 54816  41.4774 296.0117 0010857 204.1968 222.0420 15.71635233  6105
